start=new Date('2022-12-22T00:00:00.000Z').valueOf();
sats=[{"ECCENTRICITY":"0.00041410","MEAN_MOTION":"15.51005630","GP_ID":"221117849","MEAN_MOTION_DDOT":"0.0000000000000","EPHEMERIS_TYPE":"0","MEAN_ELEMENT_THEORY":"SGP4","MEAN_ANOMALY":"287.5291","PERIOD":"92.843","TIME_SYSTEM":"UTC","MEAN_MOTION_DOT":"0.00026523","RA_OF_ASC_NODE":"342.9546","ARG_OF_PERICENTER":"72.6172","REF_FRAME":"TEME","DECAY_DATE":null,"ELEMENT_SET_NO":"999","NORAD_CAT_ID":"50162","EPOCH":"2022-12-21T10:28:43.424544","CLASSIFICATION_TYPE":"U","RCS_SIZE":"LARGE","PERIAPSIS":"410.978","TLE_LINE1":"1 50162U 21125G   22355.43661371  .00026523  00000-0  45523-3 0  9993","BSTAR":"0.00045523000000","REV_AT_EPOCH":"6129","OBJECT_TYPE":"PAYLOAD","LAUNCH_DATE":"2021-12-18","COUNTRY_CODE":"US","APOAPSIS":"416.603","TLE_LINE2":"2 50162  53.2166 342.9546 0004141  72.6172 287.5291 15.51005630 61295","FILE":"3716551","CENTER_NAME":"EARTH","INCLINATION":"53.2166","SEMIMAJOR_AXIS":"6791.926","OBJECT_ID":"2021-125G","OBJECT_NAME":"STARLINK-3303","SITE":"AFWTR"},{"ECCENTRICITY":"0.00024070","MEAN_MOTION_DDOT":"0.0000000000000","MEAN_MOTION":"15.08830244","GP_ID":"221133108","MEAN_ELEMENT_THEORY":"SGP4","EPHEMERIS_TYPE":"0","MEAN_ANOMALY":"312.7949","PERIOD":"95.438","TIME_SYSTEM":"UTC","RA_OF_ASC_NODE":"109.5846","ARG_OF_PERICENTER":"47.3245","MEAN_MOTION_DOT":"-0.00001983","ELEMENT_SET_NO":"999","DECAY_DATE":null,"REF_FRAME":"TEME","NORAD_CAT_ID":"50163","EPOCH":"2022-12-21T15:37:13.495296","RCS_SIZE":"LARGE","CLASSIFICATION_TYPE":"U","PERIAPSIS":"538.110","BSTAR":"-0.00010653000000","TLE_LINE1":"1 50163U 21125H   22355.65085064 -.00001983  00000-0 -10653-3 0  9998","REV_AT_EPOCH":"5901","LAUNCH_DATE":"2021-12-18","OBJECT_TYPE":"PAYLOAD","COUNTRY_CODE":"US","APOAPSIS":"541.440","TLE_LINE2":"2 50163  53.2179 109.5846 0002407  47.3245 312.7949 15.08830244 59010","FILE":"3717184","CENTER_NAME":"EARTH","INCLINATION":"53.2179","SEMIMAJOR_AXIS":"6917.910","OBJECT_ID":"2021-125H","SITE":"AFWTR","OBJECT_NAME":"STARLINK-3306"},{"EPHEMERIS_TYPE":"0","MEAN_ELEMENT_THEORY":"SGP4","PERIOD":"95.438","MEAN_ANOMALY":"308.2239","GP_ID":"221087559","MEAN_MOTION":"15.08827337","MEAN_MOTION_DDOT":"0.0000000000000","ECCENTRICITY":"0.00027180","EPOCH":"2022-12-21T10:52:19.918848","NORAD_CAT_ID":"50165","CLASSIFICATION_TYPE":"U","RCS_SIZE":"LARGE","MEAN_MOTION_DOT":"-0.00002504","ARG_OF_PERICENTER":"51.8998","RA_OF_ASC_NODE":"130.4883","TIME_SYSTEM":"UTC","REF_FRAME":"TEME","DECAY_DATE":null,"ELEMENT_SET_NO":"999","APOAPSIS":"541.664","COUNTRY_CODE":"US","TLE_LINE1":"1 50165U 21125K   22355.45300832 -.00002504  00000-0 -13928-3 0  9999","BSTAR":"-0.00013928000000","PERIAPSIS":"537.904","OBJECT_TYPE":"PAYLOAD","LAUNCH_DATE":"2021-12-18","REV_AT_EPOCH":"5610","SEMIMAJOR_AXIS":"6917.919","INCLINATION":"53.2159","OBJECT_NAME":"STARLINK-3298","SITE":"AFWTR","OBJECT_ID":"2021-125K","TLE_LINE2":"2 50165  53.2159 130.4883 0002718  51.8998 308.2239 15.08827337 56102","CENTER_NAME":"EARTH","FILE":"3716143"},{"EPHEMERIS_TYPE":"0","MEAN_ELEMENT_THEORY":"SGP4","PERIOD":"95.438","MEAN_ANOMALY":"305.6889","GP_ID":"221133158","MEAN_MOTION":"15.08831559","MEAN_MOTION_DDOT":"0.0000000000000","ECCENTRICITY":"0.00029480","EPOCH":"2022-12-21T17:46:59.522016","NORAD_CAT_ID":"50166","CLASSIFICATION_TYPE":"U","RCS_SIZE":"LARGE","MEAN_MOTION_DOT":"-0.00000778","ARG_OF_PERICENTER":"54.4378","RA_OF_ASC_NODE":"119.1818","TIME_SYSTEM":"UTC","REF_FRAME":"TEME","DECAY_DATE":null,"ELEMENT_SET_NO":"999","APOAPSIS":"541.811","COUNTRY_CODE":"US","TLE_LINE1":"1 50166U 21125L   22355.74096669 -.00000778  00000-0 -30760-4 0  9997","BSTAR":"-0.00003076000000","PERIAPSIS":"537.732","OBJECT_TYPE":"PAYLOAD","LAUNCH_DATE":"2021-12-18","REV_AT_EPOCH":"5628","SEMIMAJOR_AXIS":"6917.906","INCLINATION":"53.2173","OBJECT_NAME":"STARLINK-3305","SITE":"AFWTR","OBJECT_ID":"2021-125L","TLE_LINE2":"2 50166  53.2173 119.1818 0002948  54.4378 305.6889 15.08831559 56289","CENTER_NAME":"EARTH","FILE":"3717175"},{"RA_OF_ASC_NODE":"130.2148","ARG_OF_PERICENTER":"48.3242","MEAN_MOTION_DOT":"-0.00001379","TIME_SYSTEM":"UTC","ELEMENT_SET_NO":"999","REF_FRAME":"TEME","DECAY_DATE":null,"EPOCH":"2022-12-21T12:17:06.444096","NORAD_CAT_ID":"50167","RCS_SIZE":"LARGE","CLASSIFICATION_TYPE":"U","MEAN_MOTION_DDOT":"0.0000000000000","MEAN_MOTION":"15.08838132","GP_ID":"221118349","ECCENTRICITY":"0.00022950","MEAN_ELEMENT_THEORY":"SGP4","EPHEMERIS_TYPE":"0","PERIOD":"95.438","MEAN_ANOMALY":"311.7946","TLE_LINE2":"2 50167  53.2135 130.2148 0002295  48.3242 311.7946 15.08838132 59194","CENTER_NAME":"EARTH","FILE":"3716551","SEMIMAJOR_AXIS":"6917.886","INCLINATION":"53.2135","SITE":"AFWTR","OBJECT_NAME":"STARLINK-3271","OBJECT_ID":"2021-125M","BSTAR":"-0.00006855600000","TLE_LINE1":"1 50167U 21125M   22355.51188014 -.00001379  00000-0 -68556-4 0  9991","PERIAPSIS":"538.163","OBJECT_TYPE":"PAYLOAD","LAUNCH_DATE":"2021-12-18","REV_AT_EPOCH":"5919","APOAPSIS":"541.339","COUNTRY_CODE":"US"},{"SITE":"AFWTR","OBJECT_NAME":"STARLINK-3296","OBJECT_ID":"2021-125N","SEMIMAJOR_AXIS":"6917.911","INCLINATION":"53.2180","CENTER_NAME":"EARTH","FILE":"3716153","TLE_LINE2":"2 50168  53.2180 120.3859 0002871  62.9972 297.1313 15.08830130 56233","APOAPSIS":"541.762","COUNTRY_CODE":"US","OBJECT_TYPE":"PAYLOAD","LAUNCH_DATE":"2021-12-18","REV_AT_EPOCH":"5623","BSTAR":"-0.00007578200000","TLE_LINE1":"1 50168U 21125N   22355.47233229 -.00001494  00000-0 -75782-4 0  9993","PERIAPSIS":"537.789","RCS_SIZE":"LARGE","CLASSIFICATION_TYPE":"U","EPOCH":"2022-12-21T11:20:09.509856","NORAD_CAT_ID":"50168","ELEMENT_SET_NO":"999","DECAY_DATE":null,"REF_FRAME":"TEME","RA_OF_ASC_NODE":"120.3859","ARG_OF_PERICENTER":"62.9972","MEAN_MOTION_DOT":"-0.00001494","TIME_SYSTEM":"UTC","PERIOD":"95.438","MEAN_ANOMALY":"297.1313","MEAN_ELEMENT_THEORY":"SGP4","EPHEMERIS_TYPE":"0","MEAN_MOTION_DDOT":"0.0000000000000","MEAN_MOTION":"15.08830130","GP_ID":"221087766","ECCENTRICITY":"0.00028710"},{"NORAD_CAT_ID":"50169","EPOCH":"2022-12-21T12:13:07.634496","RCS_SIZE":"LARGE","CLASSIFICATION_TYPE":"U","TIME_SYSTEM":"UTC","ARG_OF_PERICENTER":"39.6586","RA_OF_ASC_NODE":"120.2210","MEAN_MOTION_DOT":"-0.00000167","ELEMENT_SET_NO":"999","REF_FRAME":"TEME","DECAY_DATE":null,"MEAN_ELEMENT_THEORY":"SGP4","EPHEMERIS_TYPE":"0","MEAN_ANOMALY":"320.4629","PERIOD":"95.437","ECCENTRICITY":"0.00030520","MEAN_MOTION_DDOT":"0.0000000000000","MEAN_MOTION":"15.08845478","GP_ID":"221087771","INCLINATION":"53.2148","SEMIMAJOR_AXIS":"6917.864","OBJECT_ID":"2021-125P","SITE":"AFWTR","OBJECT_NAME":"STARLINK-3301","TLE_LINE2":"2 50169  53.2148 120.2210 0003052  39.6586 320.4629 15.08845478 56255","FILE":"3716153","CENTER_NAME":"EARTH","COUNTRY_CODE":"US","APOAPSIS":"541.840","PERIAPSIS":"537.617","BSTAR":"0.00000764850000","TLE_LINE1":"1 50169U 21125P   22355.50911614 -.00000167  00000-0  76485-5 0  9996","REV_AT_EPOCH":"5625","OBJECT_TYPE":"PAYLOAD","LAUNCH_DATE":"2021-12-18"},{"LAUNCH_DATE":"2021-12-18","OBJECT_TYPE":"PAYLOAD","REV_AT_EPOCH":"5888","BSTAR":"-0.00003096700000","TLE_LINE1":"1 50170U 21125Q   22355.72993430 -.00000782  00000-0 -30967-4 0  9996","PERIAPSIS":"537.442","APOAPSIS":"542.098","COUNTRY_CODE":"US","CENTER_NAME":"EARTH","FILE":"3716934","TLE_LINE2":"2 50170  53.2174 119.2437 0003365  50.7498 309.3792 15.08831942 58887","SITE":"AFWTR","OBJECT_NAME":"STARLINK-3245","OBJECT_ID":"2021-125Q","SEMIMAJOR_AXIS":"6917.905","INCLINATION":"53.2174","MEAN_MOTION_DDOT":"0.0000000000000","GP_ID":"221126739","MEAN_MOTION":"15.08831942","ECCENTRICITY":"0.00033650","PERIOD":"95.438","MEAN_ANOMALY":"309.3792","MEAN_ELEMENT_THEORY":"SGP4","EPHEMERIS_TYPE":"0","ELEMENT_SET_NO":"999","DECAY_DATE":null,"REF_FRAME":"TEME","RA_OF_ASC_NODE":"119.2437","ARG_OF_PERICENTER":"50.7498","MEAN_MOTION_DOT":"-0.00000782","TIME_SYSTEM":"UTC","RCS_SIZE":"LARGE","CLASSIFICATION_TYPE":"U","EPOCH":"2022-12-21T17:31:06.323520","NORAD_CAT_ID":"50170"},{"APOAPSIS":"541.709","COUNTRY_CODE":"US","TLE_LINE1":"1 50171U 21125R   22355.34720105 -.00000468  00000-0 -11263-4 0  9991","BSTAR":"-0.00001126300000","PERIAPSIS":"537.765","OBJECT_TYPE":"PAYLOAD","LAUNCH_DATE":"2021-12-18","REV_AT_EPOCH":"5931","SEMIMAJOR_AXIS":"6917.872","INCLINATION":"53.2168","OBJECT_NAME":"STARLINK-3286","SITE":"AFWTR","OBJECT_ID":"2021-125R","TLE_LINE2":"2 50171  53.2168 120.9593 0002850  42.4518 317.6694 15.08842744 59316","CENTER_NAME":"EARTH","FILE":"3716551","EPHEMERIS_TYPE":"0","MEAN_ELEMENT_THEORY":"SGP4","PERIOD":"95.437","MEAN_ANOMALY":"317.6694","MEAN_MOTION":"15.08842744","GP_ID":"221117850","MEAN_MOTION_DDOT":"0.0000000000000","ECCENTRICITY":"0.00028500","EPOCH":"2022-12-21T08:19:58.170720","NORAD_CAT_ID":"50171","CLASSIFICATION_TYPE":"U","RCS_SIZE":"LARGE","MEAN_MOTION_DOT":"-0.00000468","ARG_OF_PERICENTER":"42.4518","RA_OF_ASC_NODE":"120.9593","TIME_SYSTEM":"UTC","DECAY_DATE":null,"REF_FRAME":"TEME","ELEMENT_SET_NO":"999"},{"MEAN_ELEMENT_THEORY":"SGP4","EPHEMERIS_TYPE":"0","MEAN_ANOMALY":"311.7747","PERIOD":"95.438","ECCENTRICITY":"0.00024620","MEAN_MOTION_DDOT":"0.0000000000000","MEAN_MOTION":"15.08829779","GP_ID":"221087762","NORAD_CAT_ID":"50172","EPOCH":"2022-12-21T12:34:20.632224","RCS_SIZE":"LARGE","CLASSIFICATION_TYPE":"U","TIME_SYSTEM":"UTC","RA_OF_ASC_NODE":"120.1669","ARG_OF_PERICENTER":"48.3456","MEAN_MOTION_DOT":"-0.00001641","ELEMENT_SET_NO":"999","DECAY_DATE":null,"REF_FRAME":"TEME","COUNTRY_CODE":"US","APOAPSIS":"541.480","PERIAPSIS":"538.073","BSTAR":"-0.00008505400000","TLE_LINE1":"1 50172U 21125S   22355.52384991 -.00001641  00000-0 -85054-4 0  9994","REV_AT_EPOCH":"5885","LAUNCH_DATE":"2021-12-18","OBJECT_TYPE":"PAYLOAD","INCLINATION":"53.2168","SEMIMAJOR_AXIS":"6917.912","OBJECT_ID":"2021-125S","SITE":"AFWTR","OBJECT_NAME":"STARLINK-3287","TLE_LINE2":"2 50172  53.2168 120.1669 0002462  48.3456 311.7747 15.08829779 58853","FILE":"3716153","CENTER_NAME":"EARTH"}];
